STARLINK-6232           
1 57085C 23088AP  26123.47687500  .00032209  00000+0  11971-2 0  1232
2 57085  43.0005 146.3034 0001572 276.0977 102.4491 15.26716197    10
STARLINK-6247           
1 57086C 23088AQ  26123.50881944  .00050490  00000+0  18756-2 0  1235
2 57086  43.0020 146.3649 0001404 274.6702 175.7255 15.26721928    13
STARLINK-6251           
1 57087C 23088AR  26123.47340278  .00037463  00000+0  13573-2 0  1239
2 57087  43.0010 146.3861 0001312 274.6411  57.0650 15.27550046    17
STARLINK-6257           
1 57088C 23088AS  26123.46854167  .00036060  00000+0  13064-2 0  1233
2 57088  43.0007 146.7160 0001346 276.1607 261.4433 15.27552325    13
STARLINK-6259           
1 57089C 23088AT  26123.45881944  .00047849  00000+0  17778-2 0  1239
2 57089  43.0019 146.6179 0001306 270.4398 275.4700 15.26718861    16
STARLINK-6254           
1 57090C 23088AU  26123.50465278  .00061988  00000+0  22450-2 0  1238
2 57090  43.0013 146.2538 0001434 272.1891 210.3330 15.27550091    13
STARLINK-6262           
1 57091C 23088AV  26123.46090278  .00037821  00000+0  13701-2 0  1236
2 57091  43.0015 146.5868 0001383 275.2520 291.0398 15.27553794    14
STARLINK-6225           
1 57092C 23088AW  26123.48659722  .00036463  00000+0  13550-2 0  1237
2 57092  43.0015 146.3716 0001325 275.3302 102.4778 15.26716525    19
STARLINK-6229           
1 57093C 23088AX  26123.51159722  .00062075  00000+0  23063-2 0  1235
2 57093  43.0021 146.3312 0001493 274.7381 197.0476 15.26711221    18
STARLINK-6235           
1 57094C 23088AY  26123.47201389  .00032439  00000+0  11753-2 0  1232
2 57094  43.0002 146.7252 0001308 277.1706 265.4083 15.27553582    17
STARLINK-6132           
1 57101C 23090A   26123.45604167  .00024213  00000+0  87719-3 0  1230
2 57101  43.0017 332.3322 0001597 258.4574 238.6802 15.27558940    12
STARLINK-6111           
1 57102C 23090B   26123.51506944  .00027570  00000+0  10244-2 0  1239
2 57102  43.0003 331.8271 0001368 260.1242 272.4806 15.26724379    13
STARLINK-6130           
1 57104C 23090D   26123.47409722  .00028557  00000+0  10612-2 0  1237
2 57104  43.0006 332.1479 0001279 251.9312  17.4555 15.26722662    10
STARLINK-6097           
1 57105C 23090E   26123.50812500  .00038853  00000+0  14071-2 0  1237
2 57105  43.0018 332.1720 0001680 266.0969 101.2030 15.27561171    11
STARLINK-6118           
1 57106C 23090F   26123.42687500  .00023629  00000+0  87795-3 0  1238
2 57106  43.0005 332.2781 0001037 253.0737 171.9887 15.26728537    15
STARLINK-6131           
1 57107C 23090G   26123.45673611  .00136470  00000+0  49486-2 0  1233
2 57107  43.0000 331.9852 0001715 263.2679  19.2321 15.27472941    10
STARLINK-6099           
1 57108C 23090H   26123.48451389  .00036970  00000+0  13391-2 0  1233
2 57108  42.9998 332.0980 0001361 261.2302  60.9652 15.27558698    11
STARLINK-6139           
1 57109C 23090J   26123.46715278  .00028579  00000+0  10353-2 0  1233
2 57109  42.9999 332.6328 0001814 254.3706 148.3008 15.27558426    14
STARLINK-6134           
1 57110C 23090K   26123.46229167  .00032822  00000+0  12198-2 0  1237
2 57110  43.0002 331.9312 0001659 275.6262  48.0773 15.26715605    16
STARLINK-6140           
1 57111C 23090L   26123.52687500  .00032719  00000+0  12158-2 0  1235
2 57111  43.0001 331.6816 0001375 243.9932  23.9968 15.26722938    14
STARLINK-6141           
1 57112C 23090M   26123.50465278  .00036578  00000+0  13591-2 0  1239
2 57112  43.0012 332.0550 0001488 260.4894 143.1770 15.26720373    10
STARLINK-6142           
1 57113C 23090N   26123.46159722  .00022811  00000+0  82642-3 0  1238
2 57113  42.9999 332.0064 0001460 259.2563  28.7401 15.27558407    19
STARLINK-6125           
1 57114C 23090P   26123.49770833  .00028607  00000+0  10628-2 0  1237
2 57114  42.9997 331.6154 0001702 249.6351 317.9246 15.26729220    12
STARLINK-6085           
1 57115C 23090Q   26123.53520833  .00022349  00000+0  11574-2 0  1234
2 57115  42.9993 319.8734 0020423 199.6262  73.8514 15.15235328    12
STARLINK-6129           
1 57116C 23090R   26123.45812500  .00031993  00000+0  11885-2 0  1231
2 57116  43.0030 331.7276 0001622 265.7542 132.3313 15.26730152    12
STARLINK-6148           
1 57117C 23090S   26123.45118056  .00029955  00000+0  11129-2 0  1233
2 57117  43.0005 331.8647 0001336 266.7106  48.8083 15.26727783    18
STARLINK-6150           
1 57119C 23090U   26123.50326389  .00037920  00000+0  14088-2 0  1239
2 57119  43.0019 332.0956 0001482 261.4222 118.2220 15.26724515    19
STARLINK-6147           
1 57120C 23090V   26123.44631944  .00023733  00000+0  85929-3 0  1230
2 57120  42.9997 332.2236 0001660 261.7627 245.4666 15.27578684    19
STARLINK-6152           
1 57121C 23090W   26123.50881944  .00037825  00000+0  14054-2 0  1232
2 57121  43.0032 331.3868 0001948 265.5653  71.6502 15.26721439    18
STARLINK-6149           
1 57122C 23090X   26123.49840278  .00035913  00000+0  13342-2 0  1231
2 57122  43.0026 332.2760 0002153 266.8341  22.0312 15.26726416    19
STARLINK-6154           
1 57123C 23090Y   26123.47131944  .00033112  00000+0  12304-2 0  1239
2 57123  43.0003 332.0438 0001297 259.3670  39.6272 15.26722006    15
STARLINK-6146           
1 57124C 23090Z   26123.46993056  .00035429  00000+0  13161-2 0  1234
2 57124  42.9998 331.9149 0001424 265.3604  85.3718 15.26728550    13
STARLINK-6100           
1 57125C 23090AA  26123.47895833  .00036370  00000+0  13162-2 0  1237
2 57125  43.0009 313.7923 0001533 259.8319 118.2815 15.27589125    17
STARLINK-6167           
1 57126C 23090AB  26123.49979167  .00030242  00000+0  10953-2 0  1230
2 57126  42.9997 332.4214 0001640 268.0642 321.3908 15.27565124    16
STARLINK-6165           
1 57127C 23090AC  26123.50465278  .00028474  00000+0  10314-2 0  1231
2 57127  42.9998 331.7879 0001571 257.3383 253.5592 15.27560868    18
STARLINK-6163           
1 57128C 23090AD  26123.52479167  .00036387  00000+0  13528-2 0  1238
2 57128  42.9996 331.4749 0001531 254.1782  93.8845 15.26702649    14
STARLINK-6170           
1 57129C 23090AE  26123.47340278  .00032836  00000+0  11896-2 0  1234
2 57129  43.0011 314.4425 0001852 259.5215 193.2991 15.27554920    18
STARLINK-6172           
1 57130C 23090AF  26123.49354167  .00028209  00000+0  10480-2 0  1237
2 57130  43.0007 331.5717 0001632 267.1577 302.7697 15.26730284    19
STARLINK-6162           
1 57131C 23090AG  26123.51993056  .00028463  00000+0  10304-2 0  1234
2 57131  43.0012 313.4181 0001927 266.4620  40.9165 15.27579307    17
STARLINK-6128           
1 57132C 23090AH  26123.48868056  .00034412  00000+0  12788-2 0  1231
2 57132  42.9999 331.8845 0001124 257.1331 163.6273 15.26718261    12
STARLINK-6143           
1 57133C 23090AJ  26123.48590278  .00031394  00000+0  11668-2 0  1232
2 57133  43.0007 313.7330 0001607 257.0637 170.4683 15.26715904    19
STARLINK-6133           
1 57134C 23090AK  26123.45743056  .00038900  00000+0  14088-2 0  1233
2 57134  43.0033 313.7211 0002040 264.4306  80.0159 15.27561483    10
STARLINK-6127           
1 57135C 23090AL  26123.52340278  .00027619  00000+0  10254-2 0  1237
2 57135  43.0037 313.3643 0001730 262.0630  80.4374 15.26753142    16
STARLINK-6112           
1 57136C 23090AM  26123.47965278  .00032926  00000+0  11927-2 0  1230
2 57136  43.0010 313.6964 0001360 261.5182 162.8429 15.27558818    12
STARLINK-5347           
1 57137C 23090AN  26123.49562500  .00027438  00000+0  99389-3 0  1235
2 57137  43.0033 313.4880 0001884 258.5734 303.2523 15.27560911    16
STARLINK-5336           
1 57138C 23090AP  26123.53034722  .00024254  00000+0  90134-3 0  1233
2 57138  43.0025 313.4177 0001806 256.5494  84.5531 15.26721913    10
STARLINK-5355           
1 57139C 23090AQ  26123.52687500  .00026323  00000+0  95397-3 0  1236
2 57139  43.0027 313.3429 0001667 261.8233  97.9923 15.27546729    11
STARLINK-5357           
1 57141C 23090AS  26123.45465278  .00038453  00000+0  14288-2 0  1233
2 57141  43.0032 313.6913 0001935 266.1877  82.4838 15.26718329    11
STARLINK-5361           
1 57142C 23090AT  26123.46993056  .00037825  00000+0  13709-2 0  1234
2 57142  43.0012 313.7258 0002004 256.0274 121.9500 15.27536702    19
STARLINK-5358           
1 57143C 23090AU  26123.45534722  .00033712  00000+0  12539-2 0  1236
2 57143  43.0027 313.8188 0001628 259.1948  35.9365 15.26688957    14
STARLINK-5150           
1 57144C 23090AV  26123.44284722  .00028947  00000+0  10488-2 0  1233
2 57144  43.0009 313.8671 0002015 270.6315 325.2579 15.27552582    16
STARLINK-5768           
1 57145C 23090AW  26123.45048611  .00030100  00000+0  10905-2 0  1238
2 57145  43.0010 314.2177 0001344 255.2289 212.9292 15.27555407    11
STARLINK-5791           
1 57146C 23090AX  26123.50395833  .00022849  00000+0  82776-3 0  1233
2 57146  43.0001 313.6328 0001556 262.0742 260.7371 15.27559732    12
STARLINK-5765           
1 57147C 23090AY  26123.48173611  .00029874  00000+0  10820-2 0  1234
2 57147  43.0026 314.1757 0001369 262.1961 321.4148 15.27565391    13
STARLINK-5788           
1 57148C 23090AZ  26123.45534722  .00031265  00000+0  11618-2 0  1239
2 57148  43.0018 314.2724 0001453 257.3465 201.8799 15.26720807    16
STARLINK-5778           
1 57149C 23090BA  26123.47131944  .00384800  00000+0  22759-1 0  1234
2 57149  42.9998 297.5014 0001761 261.9064 284.0970 15.10505102    11
STARLINK-5780           
1 57150C 23090BB  26123.50187500  .00359660  00000+0  18553-1 0  1232
2 57150  43.0001 319.7920 0001613 251.9162 184.2409 15.15390894    10
STARLINK-5776           
1 57151C 23090BC  26123.45048611  .00029592  00000+0  10717-2 0  1239
2 57151  43.0013 314.1626 0001319 264.5883 224.7803 15.27566846    12
STARLINK-6164           
1 57152C 23090BD  26123.51368056  .00020623  00000+0  74684-3 0  1235
2 57152  43.0008 313.6252 0001376 264.1214 290.9910 15.27574038    19
